     3.02           N: GNSS NAV DATA    G: GPS              RINEX VERSION / TYPE
Spider v7.5.1.8670  SMO                 20210913 002310 UTC PGM / RUN BY / DATE
GPSA   1.2107D-08  1.4901D-08 -5.9605D-08 -1.1921D-07       IONOSPHERIC CORR
GPSB   9.6256D+04  8.1920D+04 -1.9661D+05 -3.9322D+05       IONOSPHERIC CORR
GPUT  4.6566128731D-09 2.309263891D-14 233472 2175          TIME SYSTEM CORR
    18    18  1929     7                                    LEAP SECONDS
                                                            END OF HEADER
G20 2021 09 12 08 00 00 5.191816017032D-04-2.273736754432D-13 0.000000000000D+00
     2.700000000000D+01-6.562500000000D-01 5.126999269578D-09 7.904347767583D-01
    -3.911554813385D-08 5.532454350032D-03 7.929280400276D-06 5.153648788452D+03
     2.880000000000D+04 1.359730958939D-07 1.731925749156D+00 1.210719347000D-07
     9.393548442883D-01 2.152812500000D+02 2.982877615134D+00-8.394992256910D-09
     3.757299471552D-10 1.000000000000D+00 2.175000000000D+03 0.000000000000D+00
     2.000000000000D+00 0.000000000000D+00-8.381903171539D-09 2.700000000000D+01
     2.154000000000D+04                   
G24 2021 09 12 08 00 00 2.326951362193D-04 8.640199666843D-12 0.000000000000D+00
     2.000000000000D+01 4.390625000000D+01 5.035924122154D-09-2.326314189466D-02
     2.332031726837D-06 1.153044612147D-02 1.055747270584D-05 5.153716403961D+03
     2.880000000000D+04 6.705522537231D-08-2.380733431241D+00 1.434236764908D-07
     9.349087436618D-01 1.652500000000D+02 7.548241176600D-01-8.377491589329D-09
    -2.232235785105D-10 1.000000000000D+00 2.175000000000D+03 0.000000000000D+00
     2.000000000000D+00 0.000000000000D+00 2.793967723846D-09 2.000000000000D+01
     2.154000000000D+04                   
G18 2021 09 12 08 00 00 3.232602030039D-04-4.206412995700D-12 0.000000000000D+00
     1.270000000000D+02-8.200000000000D+01 4.118743124337D-09-6.596492626396D-02
    -4.423782229424D-06 1.929728663526D-03 9.626150131226D-06 5.153654621124D+03
     2.880000000000D+04 5.029141902924D-08 8.546688412564D-01 1.862645149231D-09
     9.691574933226D-01 1.997812500000D+02 2.941161811218D+00-7.906400867341D-09
    -5.321650412005D-11 1.000000000000D+00 2.175000000000D+03 0.000000000000D+00
     2.000000000000D+00 0.000000000000D+00-8.381903171539D-09 3.830000000000D+02
     2.154000000000D+04                   
G05 2021 09 12 08 00 00-5.414802581072D-05-1.250555214938D-12 0.000000000000D+00
     9.700000000000D+01-6.781250000000D+00 4.740911663248D-09 2.218553605903D+00
    -5.289912223816D-07 6.088940659538D-03 8.013099431992D-06 5.153580570221D+03
     2.880000000000D+04 9.313225746155D-09 1.843095127876D+00-6.332993507385D-08
     9.573232672595D-01 2.246875000000D+02 9.897056406639D-01-8.103551607519D-09
     3.535861603510D-10 1.000000000000D+00 2.175000000000D+03 0.000000000000D+00
     2.000000000000D+00 0.000000000000D+00-1.117587089539D-08 9.700000000000D+01
     2.154000000000D+04                   
G23 2021 09 12 08 00 00 5.855970084667D-05-4.888534022029D-12 0.000000000000D+00
     1.450000000000D+02-1.121875000000D+01 4.450185553395D-09-8.128214142116D-01
    -4.712492227554D-07 1.666839234531D-03 8.217990398407D-06 5.153666156769D+03
     2.880000000000D+04-2.421438694000D-08 1.854500451228D+00-6.891787052155D-08
     9.652252221905D-01 2.271875000000D+02 2.682703173378D+00-7.941402202505D-09
     3.510860491218D-10 1.000000000000D+00 2.175000000000D+03 0.000000000000D+00
     2.000000000000D+00 0.000000000000D+00-8.381903171539D-09 6.570000000000D+02
     2.154000000000D+04                   
G13 2021 09 12 08 00 00 1.843422651291D-04 5.343281372916D-12 0.000000000000D+00
     1.020000000000D+02-2.228125000000D+01 4.465900094175D-09 1.297783873313D+00
    -1.214444637299D-06 5.420035216957D-03 8.288770914078D-06 5.153679340363D+03
     2.880000000000D+04-7.078051567078D-08 3.060952316859D+00 2.235174179077D-08
     9.686874153191D-01 2.241250000000D+02 9.636470437216D-01-8.017119412784D-09
    -3.132273329598D-10 1.000000000000D+00 2.175000000000D+03 0.000000000000D+00
     2.000000000000D+00 0.000000000000D+00-1.117587089539D-08 1.020000000000D+02
     2.154000000000D+04                   
G32 2021 09 12 08 00 00 2.146698534489D-07-3.410605131648D-12 0.000000000000D+00
     5.900000000000D+01-2.443750000000D+01 4.698410105419D-09 2.569159165552D+00
    -1.205131411552D-06 5.081753944978D-03 7.282942533493D-06 5.153708700180D+03
     2.880000000000D+04-1.862645149231D-09 2.921159835564D+00-9.499490261078D-08
     9.579116836323D-01 2.351250000000D+02-2.374915144177D+00-8.038549381695D-09
    -1.292911055994D-10 1.000000000000D+00 2.175000000000D+03 0.000000000000D+00
     2.000000000000D+00 0.000000000000D+00 4.656612873077D-10 5.900000000000D+01
     2.154000000000D+04                   
G10 2021 09 12 07 59 44-2.016122452915D-04-7.844391802792D-12 0.000000000000D+00
     0.000000000000D+00-1.243750000000D+01 4.323394531269D-09-2.353739290872D+00
    -6.202608346939D-07 6.923867971636D-03 7.949769496918D-06 5.153670421600D+03
     2.878400000000D+04 3.352761268616D-08 1.878555688653D+00-8.195638656616D-08
     9.702155780818D-01 2.313750000000D+02-2.584639441362D+00-7.808182544977D-09
     4.093027583529D-10 1.000000000000D+00 2.175000000000D+03 0.000000000000D+00
     2.000000000000D+00 0.000000000000D+00 2.328306436539D-09 0.000000000000D+00
     2.151000000000D+04                   
G12 2021 09 12 08 00 00-9.622145444155D-05-5.456968210638D-12 0.000000000000D+00
     9.500000000000D+01 9.984375000000D+01 4.520902763261D-09-1.731523714399D+00
     5.312263965607D-06 8.242949494161D-03 4.952773451805D-06 5.153684026718D+03
     2.880000000000D+04 1.918524503708D-07-1.188724960195D+00 5.029141902924D-08
     9.719912797497D-01 2.896562500000D+02 1.229144399255D+00-8.170339960145D-09
     2.571535762108D-10 1.000000000000D+00 2.175000000000D+03 0.000000000000D+00
     2.000000000000D+00 0.000000000000D+00-1.257285475731D-08 9.500000000000D+01
     2.154000000000D+04                   
G25 2021 09 12 08 00 00 2.069300971925D-04 6.252776074689D-12 0.000000000000D+00
     5.800000000000D+01 1.093125000000D+02 4.742340298236D-09-1.894366712686D+00
     5.563721060753D-06 9.875567979179D-03 5.418434739113D-06 5.153574569702D+03
     2.880000000000D+04 1.750886440277D-07-1.263581859496D+00-9.126961231232D-08
     9.593519323330D-01 2.728437500000D+02 9.670991354008D-01-8.201412882158D-09
     3.085842692485D-10 1.000000000000D+00 2.175000000000D+03 0.000000000000D+00
     2.000000000000D+00 0.000000000000D+00 5.587935447693D-09 5.800000000000D+01
     2.154000000000D+04                   
G32 2021 09 12 10 00 00 1.904554665089D-07-3.410605131648D-12 0.000000000000D+00
     6.200000000000D+01-2.378125000000D+01 4.667694231131D-09-2.663852585936D+00
    -1.119449734688D-06 5.081682931632D-03 7.376074790955D-06 5.153708822250D+03
     3.600000000000D+04-9.313225746155D-09 2.921102585728D+00-3.352761268616D-08
     9.579108878049D-01 2.341875000000D+02-2.374928216813D+00-7.968188775465D-09
    -1.721500303420D-10 1.000000000000D+00 2.175000000000D+03 0.000000000000D+00
     2.000000000000D+00 0.000000000000D+00 4.656612873077D-10 6.200000000000D+01
     2.874000000000D+04                   
G15 2021 09 12 10 00 00-1.216689124703D-04 2.728484105319D-12 0.000000000000D+00
     9.000000000000D+01-3.281250000000D+01 5.436655126090D-09 1.997131460267D+00
    -1.957640051842D-06 1.364907005336D-02 6.889924407005D-06 5.153670318604D+03
     3.600000000000D+04-1.192092895508D-07 2.808723774596D+00-2.868473529816D-07
     9.296731119996D-01 2.328125000000D+02 1.025144493200D+00-8.443565846505D-09
    -1.982225356079D-10 1.000000000000D+00 2.175000000000D+03 0.000000000000D+00
     2.000000000000D+00 0.000000000000D+00-1.071020960808D-08 9.000000000000D+01
     2.874000000000D+04                   
G29 2021 09 12 10 00 00-4.105027765036D-04-5.798028723802D-12 0.000000000000D+00
     4.200000000000D+01-5.153125000000D+01 4.318751134491D-09 2.918986195309D+00
    -2.579763531685D-06 1.953403232619D-03 4.382804036140D-06 5.153583179474D+03
     3.600000000000D+04-1.490116119385D-08-1.395613256094D-01 1.117587089539D-07
     9.834564496172D-01 3.079062500000D+02 2.332162489757D+00-8.197127421283D-09
    -1.421487788589D-10 1.000000000000D+00 2.175000000000D+03 0.000000000000D+00
     2.000000000000D+00 0.000000000000D+00-1.024454832077D-08 4.200000000000D+01
     2.874000000000D+04                   
G25 2021 09 12 10 00 00 2.069752663374D-04 6.252776074689D-12 0.000000000000D+00
     9.300000000000D+01 1.005312500000D+02 4.722339408403D-09-8.439452113970D-01
     5.446374416351D-06 9.876013849862D-03 5.189329385757D-06 5.153578004837D+03
     3.600000000000D+04 9.685754776001D-08-1.263641090124D+00 1.695007085800D-07
     9.593527866772D-01 2.828437500000D+02 9.669193413060D-01-8.447852195559D-09
     2.189376874240D-10 1.000000000000D+00 2.175000000000D+03 0.000000000000D+00
     2.000000000000D+00 0.000000000000D+00 5.587935447693D-09 9.300000000000D+01
     2.874000000000D+04                   
G12 2021 09 12 10 00 00-9.626103565097D-05-5.456968210638D-12 0.000000000000D+00
     9.700000000000D+01 9.109375000000D+01 4.498044603451D-09-6.812991145685D-01
     4.904344677925D-06 8.242478012107D-03 5.260109901428D-06 5.153684446335D+03
     3.600000000000D+04 2.980232238770D-08-1.188784329799D+00 1.303851604462D-07
     9.719923842529D-01 2.915312500000D+02 1.229093406320D+00-8.319632094356D-09
     2.392956943709D-10 1.000000000000D+00 2.175000000000D+03 0.000000000000D+00
     2.000000000000D+00 0.000000000000D+00-1.257285475731D-08 9.700000000000D+01
     2.874000000000D+04                   
